[{"OBJECT_NAME":"EXO-0","OBJECT_ID":"2023-174DK","EPOCH":"2026-03-09T17:03:04.419648","MEAN_MOTION":15.32821991,"ECCENTRICITY":0.00098779,"INCLINATION":97.3864,"RA_OF_ASC_NODE":148.9039,"ARG_OF_PERICENTER":157.1125,"MEAN_ANOMALY":203.0559,"EPHEMERIS_TYPE":0,"CLASSIFICATION_TYPE":"U","NORAD_CAT_ID":59175,"ELEMENT_SET_NO":999,"REV_AT_EPOCH":12979,"BSTAR":0.00036716083,"MEAN_MOTION_DOT":0.00011582,"MEAN_MOTION_DDOT":0},{"OBJECT_NAME":"STARLINK-35423","OBJECT_ID":"2025-223V","EPOCH":"2026-03-09T21:53:17.655360","MEAN_MOTION":15.3021659,"ECCENTRICITY":0.00011312,"INCLINATION":53.1578,"RA_OF_ASC_NODE":292.8619,"ARG_OF_PERICENTER":56.2826,"MEAN_ANOMALY":303.8282,"EPHEMERIS_TYPE":0,"CLASSIFICATION_TYPE":"U","NORAD_CAT_ID":65873,"ELEMENT_SET_NO":999,"REV_AT_EPOCH":2424,"BSTAR":0.0011933441,"MEAN_MOTION_DOT":0.0003517,"MEAN_MOTION_DDOT":0}]
